{
  "updated": "2026-07-10T21:56:34.343Z",
  "capsules": {
    "66664": {
      "name": "SOYUZ-MS 28",
      "kind": "crew",
      "family": "soyuz",
      "phase": "docked",
      "stationKey": "iss",
      "since": "2026-07-03T10:34:14.509Z",
      "distanceKm": 0,
      "altitudeKm": 427.4,
      "inclinationDeg": 51.63,
      "l1": "1 66664U 25275A   26191.34711344  .00005681  00000+0  11131-3 0  9994",
      "l2": "2 66664  51.6302 185.4700 0006687 278.6359  81.3872 15.48968037645701"
    },
    "67796": {
      "name": "CREW DRAGON 12",
      "kind": "crew",
      "family": "dragon",
      "phase": "docked",
      "stationKey": "iss",
      "since": "2026-07-03T10:34:14.509Z",
      "distanceKm": 0,
      "altitudeKm": 427.4,
      "inclinationDeg": 51.63,
      "l1": "1 67796U 26031A   26191.34711344  .00005681  00000+0  11131-3 0  9992",
      "l2": "2 67796  51.6302 185.4700 0006687 278.6359  81.3872 15.48968037628125"
    },
    "68319": {
      "name": "PROGRESS-MS 33",
      "kind": "cargo",
      "family": "progress",
      "phase": "docked",
      "stationKey": "iss",
      "since": "2026-07-10T20:18:26.588Z",
      "distanceKm": 0,
      "altitudeKm": 427.4,
      "inclinationDeg": 51.63,
      "l1": "1 68319U 26058A   26191.34711344  .00005681  00000+0  11131-3 0  9993",
      "l2": "2 68319  51.6302 185.4700 0006687 278.6359  81.3872 15.48968037663430"
    },
    "68689": {
      "name": "CYGNUS NG-24",
      "kind": "cargo",
      "family": "cygnus",
      "phase": "docked",
      "stationKey": "iss",
      "since": "2026-07-10T20:18:26.588Z",
      "distanceKm": 0,
      "altitudeKm": 427.4,
      "inclinationDeg": 51.63,
      "l1": "1 68689U 26079A   26191.34711344  .00005681  00000+0  11131-3 0  9996",
      "l2": "2 68689  51.6302 185.4700 0006687 278.6359  81.3872 15.48968037681317"
    },
    "68837": {
      "name": "PROGRESS-MS 34",
      "kind": "cargo",
      "family": "progress",
      "phase": "docked",
      "stationKey": "iss",
      "since": "2026-07-10T20:18:26.588Z",
      "distanceKm": 0,
      "altitudeKm": 427.4,
      "inclinationDeg": 51.63,
      "l1": "1 68837U 26093A   26191.34711344  .00005681  00000+0  11131-3 0  9997",
      "l2": "2 68837  51.6302 185.4700 0006687 278.6359  81.3872 15.48968037699041"
    },
    "69049": {
      "name": "TIANZHOU-10",
      "kind": "cargo",
      "family": "tianzhou",
      "phase": "docked",
      "stationKey": "css",
      "since": "2026-07-10T20:18:26.588Z",
      "distanceKm": 0,
      "altitudeKm": 402.8,
      "inclinationDeg": 41.469,
      "l1": "1 69049U 26102A   26191.59979599  .00001397  00000+0  22374-4 0  9991",
      "l2": "2 69049  41.4687 179.6858 0002649 286.3424  73.7123 15.58017112296128"
    },
    "69180": {
      "name": "SHENZHOU-23 (SZ-23)",
      "kind": "crew",
      "family": "shenzhou",
      "phase": "docked",
      "stationKey": "css",
      "since": "2026-07-03T10:34:14.509Z",
      "distanceKm": 0,
      "altitudeKm": 402.8,
      "inclinationDeg": 41.469,
      "l1": "1 69180U 26113A   26191.59979599  .00001397  00000+0  22374-4 0  9999",
      "l2": "2 69180  41.4687 179.6858 0002649 286.3424  73.7123 15.58017112295921"
    }
  },
  "events": [
    {
      "id": "68319",
      "name": "PROGRESS-MS 33",
      "kind": "cargo",
      "family": "progress",
      "stationKey": "iss",
      "event": "launched",
      "at": "2026-07-10T20:18:26.588Z"
    },
    {
      "id": "68689",
      "name": "CYGNUS NG-24",
      "kind": "cargo",
      "family": "cygnus",
      "stationKey": "iss",
      "event": "launched",
      "at": "2026-07-10T20:18:26.588Z"
    },
    {
      "id": "68837",
      "name": "PROGRESS-MS 34",
      "kind": "cargo",
      "family": "progress",
      "stationKey": "iss",
      "event": "launched",
      "at": "2026-07-10T20:18:26.588Z"
    },
    {
      "id": "69049",
      "name": "TIANZHOU-10",
      "kind": "cargo",
      "family": "tianzhou",
      "stationKey": "css",
      "event": "launched",
      "at": "2026-07-10T20:18:26.588Z"
    }
  ]
}
